CCSDS_OMM_VERS = 2.0
CREATION_DATE  = 
ORIGINATOR     = 

OBJECT_NAME    = SL-3 R/B
OBJECT_ID      = 1982-079B
CENTER_NAME    = EARTH
REF_FRAME      = TEME
TIME_SYSTEM    = UTC
MEAN_ELEMENT_THEORY = SGP/SGP4

EPOCH          = 2026-03-06T07:40:51.704832
MEAN_MOTION    = 15.24736254
ECCENTRICITY   = .00249015
INCLINATION    = 81.1477
RA_OF_ASC_NODE = 197.0545
ARG_OF_PERICENTER = 175.9353
MEAN_ANOMALY   = 184.2088

EPHEMERIS_TYPE = 0
CLASSIFICATION_TYPE = U
NORAD_CAT_ID   = 13403
ELEMENT_SET_NO = 999
REV_AT_EPOCH   = 37718
BSTAR          = .33900666E-3
MEAN_MOTION_DOT = .8493E-4
MEAN_MOTION_DDOT = 0

CCSDS_OMM_VERS = 2.0
CREATION_DATE  = 
ORIGINATOR     = 

OBJECT_NAME    = SL-14 R/B
OBJECT_ID      = 1982-092B
CENTER_NAME    = EARTH
REF_FRAME      = TEME
TIME_SYSTEM    = UTC
MEAN_ELEMENT_THEORY = SGP/SGP4

EPOCH          = 2026-03-06T06:40:17.311296
MEAN_MOTION    = 14.86662436
ECCENTRICITY   = .00192042
INCLINATION    = 82.5700
RA_OF_ASC_NODE = 144.5903
ARG_OF_PERICENTER = 315.6120
MEAN_ANOMALY   = 104.2493

EPHEMERIS_TYPE = 0
CLASSIFICATION_TYPE = U
NORAD_CAT_ID   = 13553
ELEMENT_SET_NO = 999
REV_AT_EPOCH   = 32842
BSTAR          = .70757614E-4
MEAN_MOTION_DOT = .654E-5
MEAN_MOTION_DDOT = 0

CCSDS_OMM_VERS = 2.0
CREATION_DATE  = 
ORIGINATOR     = 

OBJECT_NAME    = SL-3 R/B
OBJECT_ID      = 1983-010B
CENTER_NAME    = EARTH
REF_FRAME      = TEME
TIME_SYSTEM    = UTC
MEAN_ELEMENT_THEORY = SGP/SGP4

EPOCH          = 2026-03-06T06:23:49.903584
MEAN_MOTION    = 15.46205289
ECCENTRICITY   = .0018308
INCLINATION    = 81.1067
RA_OF_ASC_NODE = 6.4427
ARG_OF_PERICENTER = 62.0592
MEAN_ANOMALY   = 298.2503

EPHEMERIS_TYPE = 0
CLASSIFICATION_TYPE = U
NORAD_CAT_ID   = 13819
ELEMENT_SET_NO = 999
REV_AT_EPOCH   = 35741
BSTAR          = .39771912E-3
MEAN_MOTION_DOT = .19712E-3
MEAN_MOTION_DDOT = 0

CCSDS_OMM_VERS = 2.0
CREATION_DATE  = 
ORIGINATOR     = 

OBJECT_NAME    = SL-3 R/B
OBJECT_ID      = 1983-075B
CENTER_NAME    = EARTH
REF_FRAME      = TEME
TIME_SYSTEM    = UTC
MEAN_ELEMENT_THEORY = SGP/SGP4

EPOCH          = 2026-03-06T07:18:46.742688
MEAN_MOTION    = 15.38317076
ECCENTRICITY   = .00198594
INCLINATION    = 97.6139
RA_OF_ASC_NODE = 69.7536
ARG_OF_PERICENTER = 239.0613
MEAN_ANOMALY   = 120.8680

EPHEMERIS_TYPE = 0
CLASSIFICATION_TYPE = U
NORAD_CAT_ID   = 14208
ELEMENT_SET_NO = 999
REV_AT_EPOCH   = 32963
BSTAR          = .34989853E-3
MEAN_MOTION_DOT = .13221E-3
MEAN_MOTION_DDOT = 0

CCSDS_OMM_VERS = 2.0
CREATION_DATE  = 
ORIGINATOR     = 

OBJECT_NAME    = COSMOS 1536
OBJECT_ID      = 1984-013A
CENTER_NAME    = EARTH
REF_FRAME      = TEME
TIME_SYSTEM    = UTC
MEAN_ELEMENT_THEORY = SGP/SGP4

EPOCH          = 2026-03-06T04:10:22.609056
MEAN_MOTION    = 15.23769248
ECCENTRICITY   = .00127009
INCLINATION    = 82.5431
RA_OF_ASC_NODE = 111.3455
ARG_OF_PERICENTER = 297.3228
MEAN_ANOMALY   = 62.6715

EPHEMERIS_TYPE = 0
CLASSIFICATION_TYPE = U
NORAD_CAT_ID   = 14699
ELEMENT_SET_NO = 999
REV_AT_EPOCH   = 27208
BSTAR          = .24446811E-3
MEAN_MOTION_DOT = .5924E-4
MEAN_MOTION_DDOT = 0

CCSDS_OMM_VERS = 2.0
CREATION_DATE  = 
ORIGINATOR     = 

OBJECT_NAME    = SL-14 R/B
OBJECT_ID      = 1984-027B
CENTER_NAME    = EARTH
REF_FRAME      = TEME
TIME_SYSTEM    = UTC
MEAN_ELEMENT_THEORY = SGP/SGP4

EPOCH          = 2026-03-05T23:45:00.161280
MEAN_MOTION    = 14.85971460
ECCENTRICITY   = .00176758
INCLINATION    = 82.5381
RA_OF_ASC_NODE = 248.4839
ARG_OF_PERICENTER = 350.5336
MEAN_ANOMALY   = 9.5544

EPHEMERIS_TYPE = 0
CLASSIFICATION_TYPE = U
NORAD_CAT_ID   = 14820
ELEMENT_SET_NO = 999
REV_AT_EPOCH   = 24708
BSTAR          = .64757898E-4
MEAN_MOTION_DOT = .591E-5
MEAN_MOTION_DDOT = 0

CCSDS_OMM_VERS = 2.0
CREATION_DATE  = 
ORIGINATOR     = 

OBJECT_NAME    = SL-8 R/B
OBJECT_ID      = 1985-006B
CENTER_NAME    = EARTH
REF_FRAME      = TEME
TIME_SYSTEM    = UTC
MEAN_ELEMENT_THEORY = SGP/SGP4

EPOCH          = 2026-03-06T01:12:46.212768
MEAN_MOTION    = 14.37779346
ECCENTRICITY   = .00185894
INCLINATION    = 74.0433
RA_OF_ASC_NODE = 267.8456
ARG_OF_PERICENTER = 186.5184
MEAN_ANOMALY   = 290.0064

EPHEMERIS_TYPE = 0
CLASSIFICATION_TYPE = U
NORAD_CAT_ID   = 15483
ELEMENT_SET_NO = 999
REV_AT_EPOCH   = 15350
BSTAR          = .71655666E-4
MEAN_MOTION_DOT = .19E-5
MEAN_MOTION_DDOT = 0

CCSDS_OMM_VERS = 2.0
CREATION_DATE  = 
ORIGINATOR     = 

OBJECT_NAME    = SL-12 R/B(2)
OBJECT_ID      = 1985-042D
CENTER_NAME    = EARTH
REF_FRAME      = TEME
TIME_SYSTEM    = UTC
MEAN_ELEMENT_THEORY = SGP/SGP4

EPOCH          = 2026-03-06T05:59:01.393152
MEAN_MOTION    = 14.21981493
ECCENTRICITY   = .00334016
INCLINATION    = 71.1063
RA_OF_ASC_NODE = 94.9980
ARG_OF_PERICENTER = 133.7852
MEAN_ANOMALY   = 298.0198

EPHEMERIS_TYPE = 0
CLASSIFICATION_TYPE = U
NORAD_CAT_ID   = 15772
ELEMENT_SET_NO = 999
REV_AT_EPOCH   = 11390
BSTAR          = .65894496E-4
MEAN_MOTION_DOT = .99E-6
MEAN_MOTION_DDOT = 0

CCSDS_OMM_VERS = 2.0
CREATION_DATE  = 
ORIGINATOR     = 

OBJECT_NAME    = SL-14 R/B
OBJECT_ID      = 1985-069B
CENTER_NAME    = EARTH
REF_FRAME      = TEME
TIME_SYSTEM    = UTC
MEAN_ELEMENT_THEORY = SGP/SGP4

EPOCH          = 2026-03-06T07:29:23.282592
MEAN_MOTION    = 14.86428553
ECCENTRICITY   = .00181697
INCLINATION    = 82.5279
RA_OF_ASC_NODE = 28.1085
ARG_OF_PERICENTER = 199.1044
MEAN_ANOMALY   = 160.9494

EPHEMERIS_TYPE = 0
CLASSIFICATION_TYPE = U
NORAD_CAT_ID   = 15945
ELEMENT_SET_NO = 999
REV_AT_EPOCH   = 17233
BSTAR          = .85336169E-4
MEAN_MOTION_DOT = .78E-5
MEAN_MOTION_DDOT = 0

CCSDS_OMM_VERS = 2.0
CREATION_DATE  = 
ORIGINATOR     = 

OBJECT_NAME    = SL-16 R/B
OBJECT_ID      = 1985-097B
CENTER_NAME    = EARTH
REF_FRAME      = TEME
TIME_SYSTEM    = UTC
MEAN_ELEMENT_THEORY = SGP/SGP4

EPOCH          = 2026-03-06T05:52:01.469280
MEAN_MOTION    = 14.16599610
ECCENTRICITY   = .00099662
INCLINATION    = 71.0034
RA_OF_ASC_NODE = 147.8072
ARG_OF_PERICENTER = 263.9336
MEAN_ANOMALY   = 158.8528

EPHEMERIS_TYPE = 0
CLASSIFICATION_TYPE = U
NORAD_CAT_ID   = 16182
ELEMENT_SET_NO = 999
REV_AT_EPOCH   = 8674
BSTAR          = -.3429159E-4
MEAN_MOTION_DOT = -.116E-5
MEAN_MOTION_DDOT = 0

CCSDS_OMM_VERS = 2.0
CREATION_DATE  = 
ORIGINATOR     = 

OBJECT_NAME    = SL-14 R/B
OBJECT_ID      = 1986-006B
CENTER_NAME    = EARTH
REF_FRAME      = TEME
TIME_SYSTEM    = UTC
MEAN_ELEMENT_THEORY = SGP/SGP4

EPOCH          = 2026-03-06T00:29:58.504992
MEAN_MOTION    = 14.86808640
ECCENTRICITY   = .00751226
INCLINATION    = 82.5233
RA_OF_ASC_NODE = 263.1912
ARG_OF_PERICENTER = 285.2217
MEAN_ANOMALY   = 74.0702

EPHEMERIS_TYPE = 0
CLASSIFICATION_TYPE = U
NORAD_CAT_ID   = 16496
ELEMENT_SET_NO = 999
REV_AT_EPOCH   = 14866
BSTAR          = .74582639E-4
MEAN_MOTION_DOT = .725E-5
MEAN_MOTION_DDOT = 0

CCSDS_OMM_VERS = 2.0
CREATION_DATE  = 
ORIGINATOR     = 

OBJECT_NAME    = COSMOS 1743
OBJECT_ID      = 1986-034A
CENTER_NAME    = EARTH
REF_FRAME      = TEME
TIME_SYSTEM    = UTC
MEAN_ELEMENT_THEORY = SGP/SGP4

EPOCH          = 2026-03-06T07:16:30.571104
MEAN_MOTION    = 15.58271388
ECCENTRICITY   = .00019037
INCLINATION    = 82.5295
RA_OF_ASC_NODE = 77.3847
ARG_OF_PERICENTER = 320.6210
MEAN_ANOMALY   = 39.4907

EPHEMERIS_TYPE = 0
CLASSIFICATION_TYPE = U
NORAD_CAT_ID   = 16719
ELEMENT_SET_NO = 999
REV_AT_EPOCH   = 17972
BSTAR          = .51578928E-3
MEAN_MOTION_DOT = .39175E-3
MEAN_MOTION_DDOT = 0

